{
    "links": {
        "self": "http://www.neowsapp.com/rest/v1/neo/54017251?api_key=iIulBulltgU6a56xZRHN4H3l9WmuAYTsLGpBGhQ2"
    },
    "id": "54017251",
    "neo_reference_id": "54017251",
    "name": "(2020 KC5)",
    "designation": "2020 KC5",
    "nasa_jpl_url": "http://ssd.jpl.nasa.gov/sbdb.cgi?sstr=54017251",
    "absolute_magnitude_h": 27.347,
    "estimated_diameter": {
        "kilometers": {
            "estimated_diameter_min": 0.0090189292,
            "estimated_diameter_max": 0.0201669387
        },
        "meters": {
            "estimated_diameter_min": 9.0189291781,
            "estimated_diameter_max": 20.1669387266
        },
        "miles": {
            "estimated_diameter_min": 0.005604101,
            "estimated_diameter_max": 0.0125311509
        },
        "feet": {
            "estimated_diameter_min": 29.5896636048,
            "estimated_diameter_max": 66.1644992516
        }
    },
    "is_potentially_hazardous_asteroid": false,
    "close_approach_data": [
        {
            "close_approach_date": "1944-08-27",
            "close_approach_date_full": "1944-Aug-27 20:45",
            "epoch_date_close_approach": -799816500000,
            "relative_velocity": {
                "kilometers_per_second": "20.6378951452",
                "kilometers_per_hour": "74296.4225227711",
                "miles_per_hour": "46164.9076503296"
            },
            "miss_distance": {
                "astronomical": "0.4016995999",
                "lunar": "156.2611443611",
                "kilometers": "60093404.524892213",
                "miles": "37340310.0785820194"
            },
            "orbiting_body": "Earth"
        },
        {
            "close_approach_date": "2017-08-22",
            "close_approach_date_full": "2017-Aug-22 07:08",
            "epoch_date_close_approach": 1503385680000,
            "relative_velocity": {
                "kilometers_per_second": "17.0341470051",
                "kilometers_per_hour": "61322.9292184558",
                "miles_per_hour": "38103.6834357677"
            },
            "miss_distance": {
                "astronomical": "0.2814994659",
                "lunar": "109.5032922351",
                "kilometers": "42111720.504777633",
                "miles": "26167009.7413040154"
            },
            "orbiting_body": "Earth"
        },
        {
            "close_approach_date": "2020-05-29",
            "close_approach_date_full": "2020-May-29 13:54",
            "epoch_date_close_approach": 1590760440000,
            "relative_velocity": {
                "kilometers_per_second": "9.9000769354",
                "kilometers_per_hour": "35640.2769675189",
                "miles_per_hour": "22145.4820968453"
            },
            "miss_distance": {
                "astronomical": "0.0034768493",
                "lunar": "1.3524943777",
                "kilometers": "520129.249590991",
                "miles": "323193.3290220358"
            },
            "orbiting_body": "Moon"
        },
        {
            "close_approach_date": "2020-05-29",
            "close_approach_date_full": "2020-May-29 20:47",
            "epoch_date_close_approach": 1590785220000,
            "relative_velocity": {
                "kilometers_per_second": "9.1419523344",
                "kilometers_per_hour": "32911.0284037981",
                "miles_per_hour": "20449.6331767933"
            },
            "miss_distance": {
                "astronomical": "0.002470123",
                "lunar": "0.960877847",
                "kilometers": "369525.13943801",
                "miles": "229612.274384138"
            },
            "orbiting_body": "Earth"
        }
    ],
    "orbital_data": {
        "orbit_id": "6",
        "orbit_determination_date": "2020-08-22 06:34:21",
        "first_observation_date": "2020-05-26",
        "last_observation_date": "2020-05-30",
        "data_arc_in_days": 4,
        "observations_used": 47,
        "orbit_uncertainty": "7",
        "minimum_orbit_intersection": ".00227534",
        "jupiter_tisserand_invariant": "3.622",
        "epoch_osculation": "2459000.5",
        "eccentricity": ".519098000304837",
        "semi_major_axis": "2.035816244381579",
        "inclination": "4.62603104552894",
        "ascending_node_longitude": "70.3651872261394",
        "orbital_period": "1060.977783394887",
        "perihelion_distance": ".9790281029349979",
        "perihelion_argument": "204.0490943250788",
        "aphelion_distance": "3.09260438582816",
        "perihelion_time": "2459020.363680987258",
        "mean_anomaly": "353.2600613628954",
        "mean_motion": ".3393096496781318",
        "equinox": "J2000",
        "orbit_class": {
            "orbit_class_type": "APO",
            "orbit_class_description": "Near-Earth asteroid orbits which cross the Earth’s orbit similar to that of 1862 Apollo",
            "orbit_class_range": "a (semi-major axis) > 1.0 AU; q (perihelion) < 1.017 AU"
        }
    },
    "is_sentry_object": false
}